NORAD_CAT_ID,OBJECT_NAME,OBJECT_TYPE,EPOCH,MEAN_MOTION,ECCENTRICITY,INCLINATION,RA_OF_ASC_NODE,ARG_OF_PERICENTER,MEAN_ANOMALY,BSTAR,MEAN_MOTION_DOT,MEAN_MOTION_DDOT,TLE_LINE0,TLE_LINE1,TLE_LINE2,SEMIMAJOR_AXIS,PERIOD,APOGEE,PERIGEE,DECAYED
52646.0,STARLINK-3832,PAYLOAD,2023-09-01 14:00:01,15.0885001,0.000129,53.2161,69.677,90.909,250.766,-0.00010229,-1.916e-05,0.0,0 STARLINK-3832,1 52646U 22052BA  23244.58334491 -.00001916  00000-0 -10229-3 0  9992,2 52646  53.2161  69.6770 0001290  90.9090 250.7660 15.08850010  5859,6917.85,95.437,540.607,538.822,0.0
52646.0,STARLINK-3832,PAYLOAD,2023-09-01 22:00:00,15.08830272,0.0001301,53.2163,68.1821,82.129,271.1624,-1.5407e-05,-5.33e-06,0.0,0 STARLINK-3832,1 52646U 22052BA  23244.91667824 -.00000533  00000-0 -15407-4 0  9996,2 52646  53.2163  68.1821 0001301  82.1290 271.1624 15.08830272  5507,6917.91,95.438,540.675,538.875,0.0
52646.0,STARLINK-3832,PAYLOAD,2023-09-02 00:00:00,15.08817369,0.000124,53.2161,67.8079,81.1995,4.9925,0.0015887,0.00025071,0.0,0 STARLINK-3832,1 52646U 22052BA  23245.00001157  .00025071  00000-0  15887-2 0  9990,2 52646  53.2161  67.8079 0001240  81.1995   4.9925 15.08817369 72668,6917.95,95.439,540.672,538.957,0.0
52646.0,STARLINK-3832,PAYLOAD,2023-09-02 12:20:18,15.08831287,0.0001296,53.2173,65.499,86.7403,273.3738,7.787e-05,9.51e-06,0.0,0 STARLINK-3832,1 52646U 22052BA  23245.51409901  .00000951  00000-0  77870-4 0  9997,2 52646  53.2173  65.4990 0001296  86.7403 273.3738 15.08831287 72370,6917.907,95.438,540.669,538.875,0.0
52646.0,STARLINK-3832,PAYLOAD,2023-09-02 18:41:50,15.0883995,0.0001217,53.2176,64.3091,93.8518,266.2613,8.1204e-07,-2.75e-06,0.0,0 STARLINK-3832,1 52646U 22052BA  23245.77905582 -.00000275  00000-0  81204-6 0  9999,2 52646  53.2176  64.3091 0001217  93.8518 266.2613 15.08839950 72785,6917.881,95.438,540.587,538.904,0.0
52646.0,STARLINK-3832,PAYLOAD,2023-09-03 12:11:05,15.08835631,0.0001212,53.2176,61.0385,93.1472,266.9658,9.7795e-06,-1.32e-06,0.0,0 STARLINK-3832,1 52646U 22052BA  23246.50769915 -.00000132  00000-0  97795-5 0  9992,2 52646  53.2176  61.0385 0001212  93.1472 266.9658 15.08835631 72522,6917.894,95.438,540.597,538.92,0.0
52646.0,STARLINK-3832,PAYLOAD,2023-09-04 12:01:52,15.08832478,0.0001176,53.218,56.579,90.9425,269.1702,-7.2688e-06,-4.03e-06,0.0,0 STARLINK-3832,1 52646U 22052BA  23247.50130434 -.00000403  00000-0 -72688-5 0  9997,2 52646  53.2180  56.5790 0001176  90.9425 269.1702 15.08832478 72675,6917.903,95.438,540.582,538.955,0.0
52646.0,STARLINK-3832,PAYLOAD,2023-09-04 18:23:25,15.08833775,0.0001182,53.218,55.3897,90.3727,269.7401,3.9906e-06,-2.24e-06,0.0,0 STARLINK-3832,1 52646U 22052BA  23247.76626421 -.00000224  00000-0  39906-5 0  9997,2 52646  53.2180  55.3897 0001182  90.3727 269.7401 15.08833775 73085,6917.899,95.438,540.582,538.947,0.0
52646.0,STARLINK-3832,PAYLOAD,2023-09-05 03:55:43,15.08836245,0.0001203,53.2181,53.6057,90.2437,269.8693,2.523e-05,1.14e-06,0.0,0 STARLINK-3832,1 52646U 22052BA  23248.16370326  .00000114  00000-0  25230-4 0  9993,2 52646  53.2181  53.6057 0001203  90.2437 269.8693 15.08836245 72770,6917.892,95.438,540.589,538.925,0.0
52646.0,STARLINK-3832,PAYLOAD,2023-09-05 18:14:11,15.08842126,0.0001186,53.2183,50.9292,89.1212,270.9916,8.6036e-05,1.082e-05,0.0,0 STARLINK-3832,1 52646U 22052BA  23248.75985833  .00001082  00000-0  86036-4 0  9999,2 52646  53.2183  50.9292 0001186  89.1212 270.9916 15.08842126 73239,6917.874,95.437,540.559,538.918,0.0
52646.0,STARLINK-3832,PAYLOAD,2023-09-06 03:46:30,15.08838154,0.000117,53.2183,49.145,87.9226,272.19,7.3765e-05,8.86e-06,0.0,0 STARLINK-3832,1 52646U 22052BA  23249.15730145  .00000886  00000-0  73765-4 0  9994,2 52646  53.2183  49.1450 0001170  87.9226 272.1900 15.08838154 72927,6917.886,95.438,540.56,538.942,0.0
52646.0,STARLINK-3832,PAYLOAD,2023-09-06 13:18:50,15.088345,0.0001189,53.2183,47.3608,87.1927,272.9201,3.3294e-05,2.42e-06,0.0,0 STARLINK-3832,1 52646U 22052BA  23249.55474603  .00000242  00000-0  33294-4 0  9991,2 52646  53.2183  47.3608 0001189  87.1927 272.9201 15.08834500 73353,6917.897,95.438,540.585,538.94,0.0
52646.0,STARLINK-3832,PAYLOAD,2023-09-07 05:12:41,15.08837698,0.0001267,53.2185,44.3871,85.3132,274.8005,7.5976e-05,9.21e-06,0.0,0 STARLINK-3832,1 52646U 22052BA  23250.21714384  .00000921  00000-0  75976-4 0  9996,2 52646  53.2185  44.3871 0001267  85.3132 274.8005 15.08837698 73083,6917.887,95.438,540.629,538.876,0.0
52646.0,STARLINK-3832,PAYLOAD,2023-09-07 13:09:36,15.08839584,0.0001247,53.2185,42.9006,87.2611,272.8524,1.5866e-05,-3.5e-07,0.0,0 STARLINK-3832,1 52646U 22052BA  23250.54834405 -.00000035  00000-0  15866-4 0  9998,2 52646  53.2185  42.9006 0001247  87.2611 272.8524 15.08839584 73134,6917.882,95.438,540.609,538.884,0.0
52646.0,STARLINK-3832,PAYLOAD,2023-09-08 05:03:28,15.08842364,0.0001392,53.2184,39.9269,80.8232,279.2918,2.9825e-05,1.87e-06,0.0,0 STARLINK-3832,1 52646U 22052BA  23251.21074182  .00000187  00000-0  29825-4 0  9998,2 52646  53.2184  39.9269 0001392  80.8232 279.2918 15.08842364 73609,6917.873,95.437,540.701,538.775,0.0
52646.0,STARLINK-3832,PAYLOAD,2023-09-08 11:25:01,15.08835883,0.0001373,53.2187,38.7368,82.962,277.1528,2.3154e-05,8.1e-07,0.0,0 STARLINK-3832,1 52646U 22052BA  23251.47570602  .00000081  00000-0  23154-4 0  9996,2 52646  53.2187  38.7368 0001373  82.9620 277.1528 15.08835883 73277,6917.893,95.438,540.708,538.808,0.0
52646.0,STARLINK-3832,PAYLOAD,2023-09-08 19:21:56,15.08845046,0.0001274,53.219,37.2497,85.2725,274.8412,5.8146e-05,6.38e-06,0.0,0 STARLINK-3832,1 52646U 22052BA  23251.80689881  .00000638  00000-0  58146-4 0  9990,2 52646  53.2190  37.2497 0001274  85.2725 274.8412 15.08845046 73324,6917.865,95.437,540.611,538.849,0.0
52646.0,STARLINK-3832,PAYLOAD,2023-09-09 09:40:25,15.08833234,0.0001105,53.219,34.5737,74.8415,285.2699,-1.2917e-05,-4.93e-06,0.0,0 STARLINK-3832,1 52646U 22052BA  23252.40306880 -.00000493  00000-0 -12917-4 0  9999,2 52646  53.2190  34.5737 0001105  74.8415 285.2699 15.08833234 73783,6917.901,95.438,540.53,539.002,0.0
52646.0,STARLINK-3832,PAYLOAD,2023-09-09 12:51:11,15.08836649,0.0001304,53.2189,33.9791,92.5299,267.5843,1.1747e-05,-1.01e-06,0.0,0 STARLINK-3832,1 52646U 22052BA  23252.53554588 -.00000101  00000-0  11747-4 0  9998,2 52646  53.2189  33.9791 0001304  92.5299 267.5843 15.08836649 73431,6917.891,95.438,540.658,538.854,0.0
52646.0,STARLINK-3832,PAYLOAD,2023-09-09 16:01:57,15.08841352,0.0001273,53.2189,33.3845,84.1501,275.9636,4.3645e-05,4.07e-06,0.0,0 STARLINK-3832,1 52646U 22052BA  23252.66802233  .00000407  00000-0  43645-4 0  9995,2 52646  53.2189  33.3845 0001273  84.1501 275.9636 15.08841352 73826,6917.876,95.437,540.622,538.861,0.0
52646.0,STARLINK-3832,PAYLOAD,2023-09-10 12:41:58,15.08837782,0.0001258,53.219,29.5191,82.34,277.7735,5.0027e-05,5.08e-06,0.0,0 STARLINK-3832,1 52646U 22052BA  23253.52914459  .00000508  00000-0  50027-4 0  9999,2 52646  53.2190  29.5191 0001258  82.3400 277.7735 15.08837782 73585,6917.887,95.438,540.622,538.882,0.0
52646.0,STARLINK-3832,PAYLOAD,2023-09-10 19:03:30,15.08846367,0.0001283,53.219,28.3295,81.6382,278.4756,6.4135e-05,7.33e-06,0.0,0 STARLINK-3832,1 52646U 22052BA  23253.79409880  .00000733  00000-0  64135-4 0  9990,2 52646  53.2190  28.3295 0001283  81.6382 278.4756 15.08846367 73991,6917.861,95.437,540.613,538.838,0.0
52646.0,STARLINK-3832,PAYLOAD,2023-09-11 14:08:08,15.08836269,0.0001245,53.2193,24.7593,99.9624,260.1508,6.3423e-05,7.22e-06,0.0,0 STARLINK-3832,1 52646U 22052BA  23254.58898514  .00000722  00000-0  63423-4 0  9991,2 52646  53.2193  24.7593 0001245  99.9624 260.1508 15.08836269 73740,6917.892,95.438,540.618,538.896,0.0
52646.0,STARLINK-3832,PAYLOAD,2023-09-11 15:43:31,15.08845023,0.0001227,53.219,24.4642,86.7501,273.3631,7.0539e-05,8.35e-06,0.0,0 STARLINK-3832,1 52646U 22052BA  23254.65522025  .00000835  00000-0  70539-4 0  9991,2 52646  53.2190  24.4642 0001227  86.7501 273.3631 15.08845023 74121,6917.865,95.437,540.579,538.881,0.0
52646.0,STARLINK-3832,PAYLOAD,2023-09-12 12:23:32,15.08831668,0.0001315,53.2192,20.6003,83.8208,276.2934,-1.2612e-05,-4.89e-06,0.0,0 STARLINK-3832,1 52646U 22052BA  23255.51635139 -.00000489  00000-0 -12612-4 0  9993,2 52646  53.2192  20.6003 0001315  83.8208 276.2934 15.08831668 73882,6917.906,95.438,540.681,538.861,0.0
52646.0,STARLINK-3832,PAYLOAD,2023-09-12 17:09:41,15.08845496,0.0001358,53.2196,19.7052,87.1409,272.9739,4.307e-05,3.98e-06,0.0,0 STARLINK-3832,1 52646U 22052BA  23255.71506143  .00000398  00000-0  43070-4 0  9996,2 52646  53.2196  19.7052 0001358  87.1409 272.9739 15.08845496 74281,6917.864,95.437,540.668,538.789,0.0
52646.0,STARLINK-3832,PAYLOAD,2023-09-13 13:49:41,15.08853717,0.0001349,53.22,15.84,90.9065,269.2081,7.5072e-05,9.07e-06,0.0,0 STARLINK-3832,1 52646U 22052BA  23256.57617476  .00000907  00000-0  75072-4 0  9996,2 52646  53.2200  15.8400 0001349  90.9065 269.2081 15.08853717 74049,6917.838,95.437,540.637,538.77,0.0
52646.0,STARLINK-3832,PAYLOAD,2023-09-13 17:00:27,15.08861056,0.0001367,53.2199,15.2447,85.2561,274.8587,0.00013582,1.876e-05,0.0,0 STARLINK-3832,1 52646U 22052BA  23256.70864821  .00001876  00000-0  13582-3 0  9992,2 52646  53.2199  15.2447 0001367  85.2561 274.8587 15.08861056 74430,6917.816,95.436,540.627,538.735,0.0
52646.0,STARLINK-3832,PAYLOAD,2023-09-14 00:57:24,15.08841242,0.0001638,53.2195,13.7613,77.1242,282.9933,-8.4959e-06,-4.23e-06,0.0,0 STARLINK-3832,1 52646U 22052BA  23257.03986428 -.00000423  00000-0 -84959-5 0  9994,2 52646  53.2195  13.7613 0001638  77.1242 282.9933 15.08841242 74486,6917.877,95.437,540.875,538.608,0.0
52646.0,STARLINK-3832,PAYLOAD,2023-09-14 13:40:31,15.08818453,0.0001489,53.2193,11.381,78.1927,281.9232,-0.00014373,-2.573e-05,0.0,0 STARLINK-3832,1 52646U 22052BA  23257.56980795 -.00002573  00000-0 -14373-3 0  9992,2 52646  53.2193  11.3810 0001489  78.1927 281.9232 15.08818453 74199,6917.946,95.439,540.841,538.781,0.0
